GLOBALSTAR M063         
1 26081U 00008A   24138.54750381  .00000002  00000+0  12335-2 0  9993
2 26081  51.9963  73.5277 0004440 281.1979 249.8220 11.86155443110627
GLOBALSTAR M062         
1 26082U 00008B   24138.82393656 -.00000043  00000+0  39546-3 0  9993
2 26082  51.9823 178.3987 0006875 347.7968 182.6297 12.43435755447437
GLOBALSTAR M060         
1 26083U 00008C   24139.12951606  .00000011  00000+0  10109-2 0  9990
2 26083  52.0025  81.6145 0003726  40.2644 333.0398 12.17633811104410
GLOBALSTAR M064         
1 26084U 00008D   24138.78915235 -.00000062  00000+0  30824-3 0  9994
2 26084  52.0003 176.3854 0001212  11.6747 348.4113 11.88519120120089
GLOBALSTAR M065         
1 31571U 07020A   24138.84063414 -.00000029  00000+0  41846-3 0  9991
2 31571  51.9912 349.5363 0010498 149.1775 223.4882 12.61970691783497
GLOBALSTAR M069         
1 31573U 07020C   24139.48053229 -.00000048  00000+0  31192-3 0  9991
2 31573  51.9956 303.4537 0001024 112.8087 281.9144 12.62273179784632
GLOBALSTAR M072         
1 31574U 07020D   24139.50621869 -.00000058  00000+0  25490-3 0  9991
2 31574  52.0105  39.2834 0000833  60.1537 111.5696 12.62263090783132
GLOBALSTAR M071         
1 31576U 07020F   24138.89827388 -.00000047  00000+0  31683-3 0  9997
2 31576  52.0073 310.3683 0000823  77.8484  69.4918 12.62266111445813
